CCSDS_OMM_VERS,COMMENT,CREATION_DATE,ORIGINATOR,OBJECT_NAME,OBJECT_ID,CENTER_NAME,REF_FRAME,TIME_SYSTEM,MEAN_ELEMENT_THEORY,EPOCH,MEAN_MOTION,ECCENTRICITY,INCLINATION,RA_OF_ASC_NODE,ARG_OF_PERICENTER,MEAN_ANOMALY,EPHEMERIS_TYPE,CLASSIFICATION_TYPE,NORAD_CAT_ID,ELEMENT_SET_NO,REV_AT_EPOCH,BSTAR,MEAN_MOTION_DOT,MEAN_MOTION_DDOT,SEMIMAJOR_AXIS,PERIOD,APOAPSIS,PERIAPSIS,OBJECT_TYPE,RCS_SIZE,COUNTRY_CODE,LAUNCH_DATE,SITE,DECAY_DATE,FILE,GP_ID,TLE_LINE0,TLE_LINE1,TLE_LINE2
"2.0","GENERATED VIA SPACE-TRACK.ORG API","2014-07-16T19:12:51","18 SPCS","PAYLOAD A","2013-037A","EARTH","TEME","UTC","SGP4","2014-07-16T17:59:13.792415","14.67847186","0.00083290","98.0408","214.4305","312.9665","47.1324","0","U","39208","999","5308","0.00000000000000","-0.00001232","0.0000000000000","7046.090","98.102","673.824","662.086","PAYLOAD","LARGE","PRC","2013-07-19","TSC","","1714699","96467184","0 PAYLOAD A","1 39208U 13037A   14197.74946519 -.00001232  00000-0  00000+0 0  9991","2 39208 098.0408 214.4305 0008329 312.9665 047.1324 14.67847186 53085"
"2.0","GENERATED VIA SPACE-TRACK.ORG API","2014-07-16T21:22:37","18 SPCS","PAYLOAD B","2013-037B","EARTH","TEME","UTC","SGP4","2014-07-16T18:41:02.938272","14.67549778","0.00031700","98.0370","214.0731","308.6944","51.3968","0","U","39209","999","5305","-0.00001281800000","-0.00000120","0.0000000000000","7047.042","98.122","671.141","666.673","PAYLOAD","LARGE","PRC","2013-07-19","TSC","","1714827","96469938","0 PAYLOAD B","1 39209U 13037B   14197.77850623 -.00000120  00000-0 -12818-4 0  9996","2 39209 098.0370 214.0731 0003170 308.6944 051.3968 14.67549778 53058"
"2.0","GENERATED VIA SPACE-TRACK.ORG API","2014-07-17T07:13:37","18 SPCS","PAYLOAD C","2013-037C","EARTH","TEME","UTC","SGP4","2014-07-17T01:20:43.050911","14.93999841","0.00307650","97.6780","213.1883","272.1198","87.6512","0","U","39210","999","5398","0.00008218800000","0.00000826","0.0000000000000","6963.620","96.385","606.908","564.061","PAYLOAD","LARGE","PRC","2013-07-19","TSC","","1715113","96474819","0 PAYLOAD C","1 39210U 13037C   14198.05605383  .00000826  00000-0  82188-4 0  9999","2 39210 097.6780 213.1883 0030765 272.1198 087.6512 14.93999841 53982"
"2.0","GENERATED VIA SPACE-TRACK.ORG API","2014-07-17T07:12:06","18 SPCS","PAYLOAD B","2013-037B","EARTH","TEME","UTC","SGP4","2014-07-17T02:51:57.395519","14.67550792","0.00031770","98.0368","214.4077","307.5958","52.4962","0","U","39209","999","5310","0.00003784300000","0.00000167","0.0000000000000","7047.039","98.122","671.143","666.665","PAYLOAD","LARGE","PRC","2013-07-19","TSC","","1715111","96474770","0 PAYLOAD B","1 39209U 13037B   14198.11941430  .00000167  00000-0  37843-4 0  9996","2 39209 098.0368 214.4077 0003177 307.5958 052.4962 14.67550792 53102"
"2.0","GENERATED VIA SPACE-TRACK.ORG API","2014-07-17T15:36:59","18 SPCS","PAYLOAD C","2013-037C","EARTH","TEME","UTC","SGP4","2014-07-17T09:22:56.592192","14.94001183","0.00307430","97.6786","213.5159","271.0833","88.6864","0","U","39210","999","5403","0.00009479000000","0.00000961","0.0000000000000","6963.616","96.385","606.889","564.072","PAYLOAD","LARGE","PRC","2013-07-19","TSC","","1715264","96478119","0 PAYLOAD C","1 39210U 13037C   14198.39093278  .00000961  00000-0  94790-4 0  9992","2 39210 097.6786 213.5159 0030743 271.0833 088.6864 14.94001183 54030"
"2.0","GENERATED VIA SPACE-TRACK.ORG API","2014-07-17T15:35:28","18 SPCS","PAYLOAD B","2013-037B","EARTH","TEME","UTC","SGP4","2014-07-17T11:02:51.876095","14.67550676","0.00031650","98.0371","214.7424","306.9738","53.1189","0","U","39209","999","5315","0.00001259000000","0.00000024","0.0000000000000","7047.039","98.122","671.135","666.674","PAYLOAD","LARGE","PRC","2013-07-19","TSC","","1715262","96478069","0 PAYLOAD B","1 39209U 13037B   14198.46032264  .00000024  00000-0  12590-4 0  9994","2 39209 098.0371 214.7424 0003165 306.9738 053.1189 14.67550676 53156"
"2.0","GENERATED VIA SPACE-TRACK.ORG API","2014-07-17T13:22:05","18 SPCS","PAYLOAD A","2013-037A","EARTH","TEME","UTC","SGP4","2014-07-17T11:58:57.121536","14.67874655","0.00073840","98.0381","215.1658","311.7090","48.3603","0","U","39208","999","5319","0.00012280000000","0.00000654","0.0000000000000","7046.002","98.101","673.070","662.664","PAYLOAD","LARGE","PRC","2013-07-19","TSC","","1715131","96475010","0 PAYLOAD A","1 39208U 13037A   14198.49927224  .00000654  00000-0  12280-3 0  9999","2 39208 098.0381 215.1658 0007384 311.7090 048.3603 14.67874655 53199"
"2.0","GENERATED VIA SPACE-TRACK.ORG API","2014-07-17T23:24:05","18 SPCS","PAYLOAD C","2013-037C","EARTH","TEME","UTC","SGP4","2014-07-17T17:25:10.233695","14.93999694","0.00307040","97.6785","213.8428","269.5599","90.2099","0","U","39210","999","5408","0.00003871400000","0.00000358","0.0000000000000","6963.620","96.385","606.866","564.104","PAYLOAD","LARGE","PRC","2013-07-19","TSC","","1715405","96480914","0 PAYLOAD C","1 39210U 13037C   14198.72581289  .00000358  00000-0  38714-4 0  9997","2 39210 097.6785 213.8428 0030704 269.5599 090.2099 14.93999694 54085"
"2.0","GENERATED VIA SPACE-TRACK.ORG API","2014-07-17T23:22:33","18 SPCS","PAYLOAD B","2013-037B","EARTH","TEME","UTC","SGP4","2014-07-17T19:13:46.396416","14.67549276","0.00031200","98.0373","215.0766","304.2799","55.8120","0","U","39209","999","5320","-0.00005140200000","-0.00000339","0.0000000000000","7047.044","98.122","671.107","666.710","PAYLOAD","LARGE","PRC","2013-07-19","TSC","","1715402","96480882","0 PAYLOAD B","1 39209U 13037B   14198.80123144 -.00000339  00000-0 -51402-4 0  9996","2 39209 098.0373 215.0766 0003120 304.2799 055.8120 14.67549276 53204"
"2.0","GENERATED VIA SPACE-TRACK.ORG API","2014-07-17T22:24:37","18 SPCS","PAYLOAD A","2013-037A","EARTH","TEME","UTC","SGP4","2014-07-17T20:09:44.920799","14.67872172","0.00072480","98.0380","215.5003","308.7923","51.2608","0","U","39208","999","5324","-0.00000703680000","-0.00000088","0.0000000000000","7046.010","98.101","672.982","662.768","PAYLOAD","LARGE","PRC","2013-07-19","TSC","","1715315","96478840","0 PAYLOAD A","1 39208U 13037A   14198.84010325 -.00000088  00000-0 -70368-5 0  9999","2 39208 098.0380 215.5003 0007248 308.7923 051.2608 14.67872172 53242"
"2.0","GENERATED VIA SPACE-TRACK.ORG API","2014-07-18T09:34:43","18 SPCS","PAYLOAD B","2013-037B","EARTH","TEME","UTC","SGP4","2014-07-18T03:24:40.843296","14.67551086","0.00031210","98.0372","215.4110","302.0285","58.0658","0","U","39209","999","5325","0.00004611600000","0.00000214","0.0000000000000","7047.038","98.122","671.102","666.703","PAYLOAD","LARGE","PRC","2013-07-19","TSC","","1715654","96483661","0 PAYLOAD B","1 39209U 13037B   14199.14213939  .00000214  00000-0  46116-4 0  9992","2 39209 098.0372 215.4110 0003121 302.0285 058.0658 14.67551086 53255"
"2.0","GENERATED VIA SPACE-TRACK.ORG API","2014-07-18T08:00:37","18 SPCS","PAYLOAD A","2013-037A","EARTH","TEME","UTC","SGP4","2014-07-18T04:20:32.923968","14.67873142","0.00072470","98.0381","215.8352","307.6022","52.4527","0","U","39208","999","5329","0.00003554600000","0.00000155","0.0000000000000","7046.007","98.101","672.978","662.766","PAYLOAD","LARGE","PRC","2013-07-19","TSC","","1715569","96481625","0 PAYLOAD A","1 39208U 13037A   14199.18093662  .00000155  00000-0  35546-4 0  9993","2 39208 098.0381 215.8352 0007247 307.6022 052.4527 14.67873142 53296"
"2.0","GENERATED VIA SPACE-TRACK.ORG API","2014-07-18T09:34:56","18 SPCS","PAYLOAD C","2013-037C","EARTH","TEME","UTC","SGP4","2014-07-18T04:40:17.185440","14.94002903","0.00306880","97.6787","214.3010","268.0437","91.7268","0","U","39210","999","5415","0.00011405000000","0.00001168","0.0000000000000","6963.610","96.385","606.845","564.105","PAYLOAD","LARGE","PRC","2013-07-19","TSC","","1715655","96483694","0 PAYLOAD C","1 39210U 13037C   14199.19464335  .00001168  00000-0  11405-3 0  9998","2 39210 097.6787 214.3010 0030688 268.0437 091.7268 14.94002903 54157"
"2.0","GENERATED VIA SPACE-TRACK.ORG API","2014-07-18T15:34:04","18 SPCS","PAYLOAD B","2013-037B","EARTH","TEME","UTC","SGP4","2014-07-18T09:57:24.333407","14.67551855","0.00031150","98.0374","215.6785","300.3493","59.7421","0","U","39209","999","5329","0.00007558200000","0.00000381","0.0000000000000","7047.035","98.122","671.096","666.705","PAYLOAD","LARGE","PRC","2013-07-19","TSC","","1715797","96486886","0 PAYLOAD B","1 39209U 13037B   14199.41486497  .00000381  00000-0  75582-4 0  9997","2 39209 098.0374 215.6785 0003115 300.3493 059.7421 14.67551855 53296"
"2.0","GENERATED VIA SPACE-TRACK.ORG API","2014-07-18T14:25:46","18 SPCS","PAYLOAD A","2013-037A","EARTH","TEME","UTC","SGP4","2014-07-18T12:31:20.926271","14.67872798","0.00072790","98.0383","216.1698","306.4438","53.6089","0","U","39208","999","5334","0.00001716900000","0.00000050","0.0000000000000","7046.008","98.101","673.002","662.744","PAYLOAD","LARGE","PRC","2013-07-19","TSC","","1715678","96484039","0 PAYLOAD A","1 39208U 13037A   14199.52176998  .00000050  00000-0  17169-4 0  9990","2 39208 098.0383 216.1698 0007279 306.4438 053.6089 14.67872798 53346"
"2.0","GENERATED VIA SPACE-TRACK.ORG API","2014-07-18T15:38:52","18 SPCS","PAYLOAD C","2013-037C","EARTH","TEME","UTC","SGP4","2014-07-18T12:42:30.734496","14.94003512","0.00306640","97.6787","214.6288","266.8005","92.9712","0","U","39210","999","5420","0.00010406000000","0.00001061","0.0000000000000","6963.608","96.385","606.827","564.120","PAYLOAD","LARGE","PRC","2013-07-19","TSC","","1715804","96487022","0 PAYLOAD C","1 39210U 13037C   14199.52952239  .00001061  00000-0  10406-3 0  9992","2 39210 097.6787 214.6288 0030664 266.8005 092.9712 14.94003512 54208"
